NORAD_CAT_ID,OBJECT_NAME,OBJECT_TYPE,EPOCH,MEAN_MOTION,ECCENTRICITY,INCLINATION,RA_OF_ASC_NODE,ARG_OF_PERICENTER,MEAN_ANOMALY,BSTAR,MEAN_MOTION_DOT,MEAN_MOTION_DDOT,TLE_LINE0,TLE_LINE1,TLE_LINE2,SEMIMAJOR_AXIS,PERIOD,APOGEE,PERIGEE,DECAYED
50182.0,STARLINK-3277,PAYLOAD,2022-03-03 22:00:00,15.38602946,0.0001581,53.2179,355.7683,40.8926,304.1255,-0.018438,-0.00663283,0.0,0 STARLINK-3277,1 50182U 21125AC  22062.91667824 -.00663283  00000-0 -18438-1 0  9997,2 50182  53.2179 355.7683 0001581  40.8926 304.1255 15.38602946  3676,6828.377,93.591,451.321,449.162,0.0
50182.0,STARLINK-3277,PAYLOAD,2022-03-04 06:00:02,15.38133029,0.0001345,53.2175,354.2068,51.6644,340.4877,-0.018561,-0.00657861,0.0,0 STARLINK-3277,1 50182U 21125AC  22063.25002315 -.00657861  00000-0 -18561-1 0  9995,2 50182  53.2175 354.2068 0001345  51.6644 340.4877 15.38133029 14708,6829.767,93.62,452.551,450.714,0.0
50182.0,STARLINK-3277,PAYLOAD,2022-03-04 14:00:01,15.37667181,0.0001545,53.2176,352.64300000000014,40.259,38.4031,-0.018888,-0.00659252,0.0,0 STARLINK-3277,1 50182U 21125AC  22063.58335648 -.00659252  00000-0 -18888-1 0  9997,2 50182  53.2176 352.6430 0001545  40.2590  38.4031 15.37667181  3670,6831.147,93.648,454.067,451.956,0.0
50182.0,STARLINK-3277,PAYLOAD,2022-03-04 22:00:00,15.37202228,0.0001781,53.2177,351.0826,38.4388,86.1068,-0.019259,-0.00661921,0.0,0 STARLINK-3277,1 50182U 21125AC  22063.91667824 -.00661921  00000-0 -19259-1 0  9997,2 50182  53.2177 351.0826 0001781  38.4388  86.1068 15.37202228  3676,6832.524,93.677,455.606,453.172,0.0
50182.0,STARLINK-3277,PAYLOAD,2022-03-05 06:00:00,15.3673061,0.0001858,53.2174,349.5242,37.8488,132.0855,-0.019274,-0.00653022,0.0,0 STARLINK-3277,1 50182U 21125AC  22064.25001157 -.00653022  00000-0 -19274-1 0  9996,2 50182  53.2174 349.5242 0001858  37.8488 132.0855 15.36730610 14864,6833.922,93.705,457.057,454.517,0.0
50182.0,STARLINK-3277,PAYLOAD,2022-03-05 14:00:01,15.3626709,0.0001551999999999,53.2175,347.9637,51.7793,162.9822,-0.019722,-0.00657842,0.0,0 STARLINK-3277,1 50182U 21125AC  22064.58334491 -.00657842  00000-0 -19722-1 0  9994,2 50182  53.2175 347.9637 0001552  51.7793 162.9822 15.36267090  3658,6835.295999999999,93.734,458.222,456.101,0.0
50182.0,STARLINK-3277,PAYLOAD,2022-03-05 22:00:01,15.35801551,0.0001686,53.2176,346.4069,45.7973,213.2939,-0.020086,-0.0065985,0.0,0 STARLINK-3277,1 50182U 21125AC  22064.91668981 -.00659850  00000-0 -20086-1 0  9991,2 50182  53.2176 346.4069 0001686  45.7973 213.2939 15.35801551  3680,6836.678000000001,93.762,459.695,457.39,0.0
50182.0,STARLINK-3277,PAYLOAD,2022-03-06 06:00:00,15.35333512,0.0001493,53.2173,344.8516,49.3278,253.4049,-0.020288,-0.00656721,0.0,0 STARLINK-3277,1 50182U 21125AC  22065.25001157 -.00656721  00000-0 -20288-1 0  9993,2 50182  53.2173 344.8516 0001493  49.3278 253.4049 15.35333512 15015,6838.066999999999,93.791,460.953,458.911,0.0
50182.0,STARLINK-3277,PAYLOAD,2022-03-06 14:00:01,15.34867104,0.0001366,53.2175,343.2945,49.9938,295.8856,-0.02063,-0.00657771,0.0,0 STARLINK-3277,1 50182U 21125AC  22065.58334491 -.00657771  00000-0 -20630-1 0  9996,2 50182  53.2175 343.2945 0001366  49.9938 295.8856 15.34867104  3666,6839.4519999999975,93.819,462.252,460.383,0.0
50182.0,STARLINK-3277,PAYLOAD,2022-03-06 22:00:00,15.34403341,0.0001569,53.2177,341.7412,41.7255,346.7369,-0.021098,-0.00662454,0.0,0 STARLINK-3277,1 50182U 21125AC  22065.91667824 -.00662454  00000-0 -21098-1 0  9995,2 50182  53.2177 341.7412 0001569  41.7255 346.7369 15.34403341  3661,6840.83,93.848,463.769,461.622,0.0
50182.0,STARLINK-3277,PAYLOAD,2022-03-07 06:00:00,15.33934248,0.0001438,53.2172,340.1892,47.2149,23.2715,-0.021247,-0.00657565,0.0,0 STARLINK-3277,1 50182U 21125AC  22066.25001157 -.00657565  00000-0 -21247-1 0  9997,2 50182  53.2172 340.1892 0001438  47.2149  23.2715 15.33934248 15163,6842.225,93.876,465.074,463.106,0.0
50182.0,STARLINK-3277,PAYLOAD,2022-03-07 12:00:00,15.33586318,0.000131,53.2176,339.0235,54.2214,317.4156,-0.021633,-0.00661802,0.0,0 STARLINK-3277,1 50182U 21125AC  22066.50001157 -.00661802  00000-0 -21633-1 0  9993,2 50182  53.2176 339.0235 0001310  54.2214 317.4156 15.33586318  3700,6843.26,93.898,466.021,464.228,0.0
50182.0,STARLINK-3277,PAYLOAD,2022-03-07 22:00:00,15.33001698,0.0001698,53.2174,337.0853,44.6133,108.2399,-0.021947,-0.006593,0.0,0 STARLINK-3277,1 50182U 21125AC  22066.91667824 -.00659300  00000-0 -21947-1 0  9995,2 50182  53.2174 337.0853 0001698  44.6133 108.2399 15.33001698  3656,6844.999,93.933,468.027,465.702,0.0
50182.0,STARLINK-3277,PAYLOAD,2022-03-08 06:00:02,15.3253468,0.0001717,53.2172,335.5364,43.8429,149.4156,-0.022224,-0.00657935,0.0,0 STARLINK-3277,1 50182U 21125AC  22067.25002315 -.00657935  00000-0 -22224-1 0  9992,2 50182  53.2172 335.5364 0001717  43.8429 149.4156 15.32534680 15321,6846.39,93.962,469.431,467.079,0.0
50182.0,STARLINK-3277,PAYLOAD,2022-03-08 14:00:01,15.32067659,0.0001553,53.2173,333.9857,52.2717,180.7058,-0.022527,-0.00657188,0.0,0 STARLINK-3277,1 50182U 21125AC  22067.58334491 -.00657188  00000-0 -22527-1 0  9997,2 50182  53.2173 333.9857 0001553  52.2717 180.7058 15.32067659  3663,6847.781,93.991,470.71,468.583,0.0
50182.0,STARLINK-3277,PAYLOAD,2022-03-08 22:00:00,15.31601592,0.0001754,53.2174,332.4394,42.6715,229.5258,-0.022893,-0.00658105,0.0,0 STARLINK-3277,1 50182U 21125AC  22067.91667824 -.00658105  00000-0 -22893-1 0  9999,2 50182  53.2174 332.4394 0001754  42.6715 229.5258 15.31601592  3661,6849.17,94.019,472.237,469.834,0.0
50182.0,STARLINK-3277,PAYLOAD,2022-03-09 14:00:01,15.30667035,0.0001571999999999,53.2174,329.3463,40.5997,308.3588,-0.023491,-0.00655959,0.0,0 STARLINK-3277,1 50182U 21125AC  22068.58334491 -.00655959  00000-0 -23491-1 0  9993,2 50182  53.2174 329.3463 0001572  40.5997 308.3588 15.30667035  3676,6851.958000000001,94.077,474.9,472.746,0.0
50182.0,STARLINK-3277,PAYLOAD,2022-03-09 16:00:00,15.30485409,0.0001743,53.2178,328.9582,39.4826,48.94600000000001,-0.020127,-0.00558775,0.0,0 STARLINK-3277,1 50182U 21125AC  22068.66667824 -.00558775  00000-0 -20127-1 0  9992,2 50182  53.2178 328.9582 0001743  39.4826  48.9460 15.30485409 15543,6852.5,94.088,475.559,473.171,0.0
50182.0,STARLINK-3277,PAYLOAD,2022-03-09 22:00:01,15.30203521,0.0001692,53.2176,327.8034,38.2429,348.3162,-0.024029,-0.00660992,0.0,0 STARLINK-3277,1 50182U 21125AC  22068.91668981 -.00660992  00000-0 -24029-1 0  9995,2 50182  53.2176 327.8034 0001692  38.2429 348.3162 15.30203521  3658,6853.342,94.105,476.366,474.047,0.0
50182.0,STARLINK-3277,PAYLOAD,2022-03-10 06:00:00,15.29656623,0.0001536,53.2176,326.2589,36.6834,26.8316,-0.020056,-0.00543713,0.0,0 STARLINK-3277,1 50182U 21125AC  22069.25001157 -.00543713  00000-0 -20056-1 0  9996,2 50182  53.2176 326.2589 0001536  36.6834  26.8316 15.29656623 15627,6854.975,94.139,477.893,475.787,0.0
50182.0,STARLINK-3277,PAYLOAD,2022-03-10 14:00:01,15.29164431,0.0001846,53.2179,324.715,30.5127,69.4364,-0.019113,-0.00512486,0.0,0 STARLINK-3277,1 50182U 21125AC  22069.58334491 -.00512486  00000-0 -19113-1 0  9997,2 50182  53.2179 324.7150 0001846  30.5127  69.4364 15.29164431  3623,6856.446,94.169,479.577,477.045,0.0
50182.0,STARLINK-3277,PAYLOAD,2022-03-10 20:00:01,15.28921058,0.0001747,53.2177,323.5619,36.0481,0.7885,-0.025045,-0.00662012,0.0,0 STARLINK-3277,1 50182U 21125AC  22069.83334491 -.00662012  00000-0 -25045-1 0  9997,2 50182  53.2177 323.5619 0001747  36.0481   0.7885 15.28921058 15716,6857.1730000000025,94.184,480.236,477.84,0.0
50182.0,STARLINK-3277,PAYLOAD,2022-03-10 22:00:01,15.28802257,0.0001921,53.2174,323.1772,36.0153,99.7973,-0.025006,-0.00658824,0.0,0 STARLINK-3277,1 50182U 21125AC  22069.91668981 -.00658824  00000-0 -25006-1 0  9993,2 50182  53.2174 323.1772 0001921  36.0153  99.7973 15.28802257  3665,6857.529,94.191,480.711,478.076,0.0
50182.0,STARLINK-3277,PAYLOAD,2022-03-11 14:00:01,15.27870112,0.0001761999999999,53.2172,320.097,43.9018,161.8796,-0.025798,-0.00660336,0.0,0 STARLINK-3277,1 50182U 21125AC  22070.58334491 -.00660336  00000-0 -25798-1 0  9993,2 50182  53.2172 320.0970 0001762  43.9018 161.8796 15.27870112  3645,6860.318,94.249,483.391,480.974,0.0
50182.0,STARLINK-3277,PAYLOAD,2022-03-11 22:00:00,15.2740132,0.0001917,53.2175,318.561,39.6494,200.3068,-0.026006,-0.00656477,0.0,0 STARLINK-3277,1 50182U 21125AC  22070.91667824 -.00656477  00000-0 -26006-1 0  9993,2 50182  53.2175 318.5610 0001917  39.6494 200.3068 15.27401320 15884,6861.721,94.278,484.902,482.271,0.0
50182.0,STARLINK-3277,PAYLOAD,2022-03-12 14:00:01,15.26468277,0.0001653,53.2174,315.4872,43.4468,263.1787,-0.026769,-0.00656721,0.0,0 STARLINK-3277,1 50182U 21125AC  22071.58334491 -.00656721  00000-0 -26769-1 0  9996,2 50182  53.2174 315.4872 0001653  43.4468 263.1787 15.26468277  3650,6864.517,94.335,487.517,485.247,0.0
50182.0,STARLINK-3277,PAYLOAD,2022-03-12 22:00:00,15.26003324,0.0001878,53.2175,313.9545,34.4087,304.7081,-0.027251,-0.00659022,0.0,0 STARLINK-3277,1 50182U 21125AC  22071.91667824 -.00659022  00000-0 -27251-1 0  9996,2 50182  53.2175 313.9545 0001878  34.4087 304.7081 15.26003324  3665,6865.911,94.364,489.066,486.487,0.0
50182.0,STARLINK-3277,PAYLOAD,2022-03-13 06:00:00,15.2553814,0.0001465,53.2174,312.4211,46.6184,324.4305,-0.027739,-0.00661217,0.0,0 STARLINK-3277,1 50182U 21125AC  22072.25001157 -.00661217  00000-0 -27739-1 0  9995,2 50182  53.2174 312.4211 0001465  46.6184 324.4305 15.25538140 16089,6867.307,94.393,490.17800000000005,488.166,0.0
50182.0,STARLINK-3277,PAYLOAD,2022-03-13 14:00:01,15.25068484,0.0001629,53.2174,310.8873,40.1228,2.3003,-0.027923,-0.00656595,0.0,0 STARLINK-3277,1 50182U 21125AC  22072.58334491 -.00656595  00000-0 -27923-1 0  9999,2 50182  53.2174 310.8873 0001629  40.1228   2.3003 15.25068484  3661,6868.717,94.422,491.701,489.463,0.0
